LUR-1                   
1 60506U 24149AQ  26068.79566301  .00009121  00000+0  32985-3 0  9998
2 60506  97.3790 148.4255 0002777 309.1571  50.9421 15.28658648 86785
STARLINK-36440          
1 67447U 26008C   26068.41085946  .00037547  00000+0  13658-2 0  9993
2 67447  42.9977 206.4372 0003050 295.2716  64.7819 15.27607504  9531
